NORAD_CAT_ID,OBJECT_NAME,OBJECT_TYPE,EPOCH,MEAN_MOTION,ECCENTRICITY,INCLINATION,RA_OF_ASC_NODE,ARG_OF_PERICENTER,MEAN_ANOMALY,BSTAR,MEAN_MOTION_DOT,MEAN_MOTION_DDOT,TLE_LINE0,TLE_LINE1,TLE_LINE2,SEMIMAJOR_AXIS,PERIOD,APOGEE,PERIGEE,DECAYED
54098.0,STARLINK-5217,PAYLOAD,2024-05-13 06:29:28,15.07206204,0.0001696,53.2171,81.6228,100.5157,259.6025,0.0033132,0.00050513,0.0,0 STARLINK-5217,1 54098U 22136AZ  24134.27047293  .00050513  00000-0  33132-2 0  9996,2 54098  53.2171  81.6228 0001696 100.5157 259.6025 15.07206204 86522,6922.879,95.541,545.918,543.57,0.0
54098.0,STARLINK-5217,PAYLOAD,2024-05-14 01:35:19,15.07277494,0.0002441,53.2175,78.0606,103.5112,256.6152,0.0034554,0.00052814,0.0,0 STARLINK-5217,1 54098U 22136AZ  24135.06620066  .00052814  00000-0  34554-2 0  9994,2 54098  53.2175  78.0606 0002441 103.5112 256.6152 15.07277494 87112,6922.66,95.536,546.215,542.836,0.0
54098.0,STARLINK-5217,PAYLOAD,2024-05-14 12:43:33,15.07673588,0.0001597,53.218,75.9806,135.5891,224.5229,0.0049553,0.00076945,0.0,0 STARLINK-5217,1 54098U 22136AZ  24135.53024966  .00076945  00000-0  49553-2 0  9999,2 54098  53.2180  75.9806 0001597 135.5891 224.5229 15.07673588 87186,6921.448,95.511,544.418,542.208,0.0
54098.0,STARLINK-5217,PAYLOAD,2024-05-15 03:02:27,15.08329124,0.0001066,53.2168,73.3056,90.8336,269.2778,0.005945,0.00094268,0.0,0 STARLINK-5217,1 54098U 22136AZ  24136.12670660  .00094268  00000-0  59450-2 0  9998,2 54098  53.2168  73.3056 0001066  90.8336 269.2778 15.08329124 87279,6919.442,95.47,542.045,540.57,0.0
54098.0,STARLINK-5217,PAYLOAD,2024-05-15 14:00:01,15.08823379,0.0001612,53.2165,71.2564,104.9135,216.5062,0.00035054,5.293e-05,0.0,0 STARLINK-5217,1 54098U 22136AZ  24136.58334491  .00005293  00000-0  35054-3 0  9992,2 54098  53.2165  71.2564 0001612 104.9135 216.5062 15.08823379 87348,6917.931,95.439,540.911,538.681,0.0
54098.0,STARLINK-5217,PAYLOAD,2024-05-15 22:00:00,15.08847949,0.0001706,53.2165,69.7603,106.127,226.8646,-0.0012249,-0.00019734,0.0,0 STARLINK-5217,1 54098U 22136AZ  24136.91667824 -.00019734  00000-0 -12249-2 0  9995,2 54098  53.2165  69.7603 0001706 106.1270 226.8646 15.08847949  5859,6917.856,95.437,540.901,538.541,0.0
54098.0,STARLINK-5217,PAYLOAD,2024-05-16 14:00:01,15.08792421,0.0001461,53.2161,66.7671,97.7456,258.4712,0.0033012,0.00052574,0.0,0 STARLINK-5217,1 54098U 22136AZ  24137.58334491  .00052574  00000-0  33012-2 0  9998,2 54098  53.2161  66.7671 0001461  97.7456 258.4712 15.08792421  5709,6918.026,95.441,540.902,538.88,0.0
54098.0,STARLINK-5217,PAYLOAD,2024-05-16 22:00:00,15.08865169,0.0001433,53.2162,65.2712,96.8322,270.962,0.0016622,0.00026283,0.0,0 STARLINK-5217,1 54098U 22136AZ  24137.91667824  .00026283  00000-0  16622-2 0  9990,2 54098  53.2162  65.2712 0001433  96.8322 270.9620 15.08865169 87540,6917.803,95.436,540.66,538.677,0.0
54098.0,STARLINK-5217,PAYLOAD,2024-05-17 14:00:01,15.08763374,0.0001106,53.2161,62.2777,81.4682,309.5888,0.0036543,0.00058228,0.0,0 STARLINK-5217,1 54098U 22136AZ  24138.58334491  .00058228  00000-0  36543-2 0  9993,2 54098  53.2161  62.2777 0001106  81.4682 309.5888 15.08763374 87644,6918.115,95.442,540.745,539.214,0.0
54098.0,STARLINK-5217,PAYLOAD,2024-05-17 22:00:00,15.08820137,0.0001136,53.2162,60.7821,78.949,323.6225,0.0013416,0.00021116,0.0,0 STARLINK-5217,1 54098U 22136AZ  24138.91667824  .00021116  00000-0  13416-2 0  9999,2 54098  53.2162  60.7821 0001136  78.9490 323.6225 15.08820137  5800,6917.941,95.439,540.592,539.02,0.0
54098.0,STARLINK-5217,PAYLOAD,2024-05-18 14:00:01,15.08784757,0.0001008,53.2164,57.7885,106.3357,319.5037,0.0064483,0.00103693,0.0,0 STARLINK-5217,1 54098U 22136AZ  24139.58335648  .00103693  00000-0  64483-2 0  9990,2 54098  53.2164  57.7885 0001008 106.3357 319.5037 15.08784757 87794,6918.049,95.441,540.612,539.217,0.0
54098.0,STARLINK-5217,PAYLOAD,2024-05-18 22:00:01,15.08864513,0.0001031,53.2166,56.293,99.0095,338.3762,0.0011111,0.00017451,0.0,0 STARLINK-5217,1 54098U 22136AZ  24139.91668981  .00017451  00000-0  11111-2 0  9992,2 54098  53.2166  56.2930 0001031  99.0095 338.3762 15.08864513 87843,6917.805,95.436,540.384,538.957,0.0
54098.0,STARLINK-5217,PAYLOAD,2024-05-19 04:01:06,15.08842955,0.0001219,53.2173,55.1657,103.5981,256.5147,0.0019659,0.0003114,0.0,0 STARLINK-5217,1 54098U 22136AZ  24140.16743118  .00031140  00000-0  19659-2 0  9993,2 54098  53.2173  55.1657 0001219 103.5981 256.5147 15.08842955 87886,6917.871,95.437,540.58,538.893,0.0
54098.0,STARLINK-5217,PAYLOAD,2024-05-20 00:41:07,15.08834859,0.0001071,53.2178,51.2999,78.1764,281.9348,0.001297,0.00020411,0.0,0 STARLINK-5217,1 54098U 22136AZ  24141.02855960  .00020411  00000-0  12970-2 0  9996,2 54098  53.2178  51.2999 0001071  78.1764 281.9348 15.08834859 88014,6917.896,95.438,540.502,539.02,0.0
54098.0,STARLINK-5217,PAYLOAD,2024-05-20 21:21:08,15.08844468,0.0001266,53.2187,47.4319,93.8314,266.2823,0.0010705,0.00016792,0.0,0 STARLINK-5217,1 54098U 22136AZ  24141.88968570  .00016792  00000-0  10705-2 0  9993,2 54098  53.2187  47.4319 0001266  93.8314 266.2823 15.08844468 88143,6917.867,95.437,540.608,538.856,0.0
54098.0,STARLINK-5217,PAYLOAD,2024-05-21 03:42:41,15.08840074,0.0001136,53.218,46.2453,83.0066,277.1055,0.00041049,6.251e-05,0.0,0 STARLINK-5217,1 54098U 22136AZ  24142.15464572  .00006251  00000-0  41049-3 0  9992,2 54098  53.2180  46.2453 0001136  83.0066 277.1055 15.08840074 88184,6917.88,95.438,540.531,538.959,0.0
54098.0,STARLINK-5217,PAYLOAD,2024-05-21 22:47:18,15.0884855,0.0001177,53.218,42.6768,84.1534,275.9592,0.00037928,5.755e-05,0.0,0 STARLINK-5217,1 54098U 22136AZ  24142.94952305  .00005755  00000-0  37928-3 0  9994,2 54098  53.2180  42.6768 0001177  84.1534 275.9592 15.08848550 87830,6917.854,95.437,540.533,538.905,0.0
54098.0,STARLINK-5217,PAYLOAD,2024-05-22 00:22:41,15.08851179,0.0001198,53.2183,42.3794,87.4835,272.6294,0.00041971,6.4e-05,0.0,0 STARLINK-5217,1 54098U 22136AZ  24143.01576191  .00006400  00000-0  41971-3 0  9999,2 54098  53.2183  42.3794 0001198  87.4835 272.6294 15.08851179 87847,6917.846,95.437,540.54,538.882,0.0
54098.0,STARLINK-5217,PAYLOAD,2024-05-22 21:02:42,15.08846673,0.0001334,53.2179,38.5141,118.2684,241.8443,0.00010902,1.448e-05,0.0,0 STARLINK-5217,1 54098U 22136AZ  24143.87687891  .00001448  00000-0  10902-3 0  9990,2 54098  53.2179  38.5141 0001334 118.2684 241.8443 15.08846673 88446,6917.86,95.437,540.648,538.802,0.0
54098.0,STARLINK-5217,PAYLOAD,2024-05-23 20:53:29,15.0883933,0.0001401,53.219,34.0599,120.3587,239.7544,-1.6944e-05,-5.58e-06,0.0,0 STARLINK-5217,1 54098U 22136AZ  24144.87048190 -.00000558  00000-0 -16944-4 0  9990,2 54098  53.2190  34.0599 0001401 120.3587 239.7544 15.08839330 88594,6917.882,95.438,540.717,538.778,0.0
54098.0,STARLINK-5217,PAYLOAD,2024-05-24 00:04:15,15.0884381,0.000121,53.2179,33.4613,104.4238,255.6889,0.00010334,1.357e-05,0.0,0 STARLINK-5217,1 54098U 22136AZ  24145.00296111  .00001357  00000-0  10334-3 0  9996,2 54098  53.2179  33.4613 0001210 104.4238 255.6889 15.08843810 88143,6917.869,95.437,540.571,538.897,0.0
54098.0,STARLINK-5217,PAYLOAD,2024-05-24 22:19:39,15.08836118,0.0001115,53.2174,29.2977,107.6728,252.4386,5.4247e-05,5.76e-06,0.0,0 STARLINK-5217,1 54098U 22136AZ  24145.93032251  .00000576  00000-0  54247-4 0  9995,2 54098  53.2174  29.2977 0001115 107.6728 252.4386 15.08836118 88282,6917.892,95.438,540.529,538.986,0.0
54098.0,STARLINK-5217,PAYLOAD,2024-05-25 01:30:26,15.08842991,0.0001096,53.2173,28.7006,86.9822,273.1296,0.00016114,2.278e-05,0.0,0 STARLINK-5217,1 54098U 22136AZ  24146.06280148  .00002278  00000-0  16114-3 0  9991,2 54098  53.2173  28.7006 0001096  86.9822 273.1296 15.08842991 88770,6917.871,95.437,540.494,538.978,0.0
54098.0,STARLINK-5217,PAYLOAD,2024-05-25 09:27:21,15.0884723,0.000111,53.2174,27.2166,85.7363,274.3756,0.00013277,1.826e-05,0.0,0 STARLINK-5217,1 54098U 22136AZ  24146.39399899  .00001826  00000-0  13277-3 0  9996,2 54098  53.2174  27.2166 0001110  85.7363 274.3756 15.08847230 88355,6917.858,95.437,540.491,538.955,0.0
54098.0,STARLINK-5217,PAYLOAD,2024-05-25 22:10:28,15.08819189,0.0001158,53.2177,24.8382,83.964,276.1484,-0.00023602,-4.04e-05,0.0,0 STARLINK-5217,1 54098U 22136AZ  24146.92393855 -.00004040  00000-0 -23602-3 0  9997,2 54098  53.2177  24.8382 0001158  83.9640 276.1484 15.08819189 88902,6917.944,95.439,540.61,539.008,0.0
54098.0,STARLINK-5217,PAYLOAD,2024-05-26 22:01:21,15.08672111,6.99e-05,53.2192,20.39,338.3753,21.721,-0.00147,-0.00023499,0.0,0 STARLINK-5217,1 54098U 22136AZ  24147.91760802 -.00023499  00000-0 -14700-2 0  9994,2 54098  53.2192  20.3900 0000699 338.3753  21.7210 15.08672111 89057,6918.394,95.448,540.742,539.775,0.0
54098.0,STARLINK-5217,PAYLOAD,2024-05-27 02:47:23,15.08852231,9.33e-05,53.217,19.4861,87.6075,272.5023,0.00056469,8.714e-05,0.0,0 STARLINK-5217,1 54098U 22136AZ  24148.11624921  .00008714  00000-0  56469-3 0  9998,2 54098  53.2170  19.4861 0000933  87.6075 272.5023 15.08852231 89084,6917.843,95.437,540.353,539.063,0.0
54098.0,STARLINK-5217,PAYLOAD,2024-05-27 20:16:38,15.08848334,9.46e-05,53.2174,16.2174,92.8993,267.2108,0.00029162,4.357e-05,0.0,0 STARLINK-5217,1 54098U 22136AZ  24148.84489042  .00004357  00000-0  29162-3 0  9990,2 54098  53.2174  16.2174 0000946  92.8993 267.2108 15.08848334 89197,6917.855,95.437,540.374,539.065,0.0
54098.0,STARLINK-5217,PAYLOAD,2024-05-27 21:52:01,15.08850909,9.08e-05,53.2172,15.9203,89.4072,270.7025,0.00029114,4.35e-05,0.0,0 STARLINK-5217,1 54098U 22136AZ  24148.91112952  .00004350  00000-0  29114-3 0  9991,2 54098  53.2172  15.9203 0000908  89.4072 270.7025 15.08850909 88739,6917.847,95.437,540.34,539.084,0.0
54098.0,STARLINK-5217,PAYLOAD,2024-05-28 01:02:47,15.08854308,8.49e-05,53.2173,15.3221,92.9278,267.1811,0.00035975,5.444e-05,0.0,0 STARLINK-5217,1 54098U 22136AZ  24149.04360760  .00005444  00000-0  35975-3 0  9995,2 54098  53.2173  15.3221 0000849  92.9278 267.1811 15.08854308 88757,6917.837,95.437,540.289,539.114,0.0
